CCSDS_OMM_VERS = 2.0
CREATION_DATE  = 
ORIGINATOR     = 

OBJECT_NAME    = TITAN 4B R/B
OBJECT_ID      = 2000-047B
CENTER_NAME    = EARTH
REF_FRAME      = TEME
TIME_SYSTEM    = UTC
MEAN_ELEMENT_THEORY = SGP/SGP4

EPOCH          = 2025-11-07T03:20:53.433312
MEAN_MOTION    = 15.08385332
ECCENTRICITY   = .0042427
INCLINATION    = 67.9919
RA_OF_ASC_NODE = 24.8108
ARG_OF_PERICENTER = 185.9200
MEAN_ANOMALY   = 174.1453

EPHEMERIS_TYPE = 0
CLASSIFICATION_TYPE = U
NORAD_CAT_ID   = 26474
ELEMENT_SET_NO = 999
REV_AT_EPOCH   = 37442
BSTAR          = .35291E-3
MEAN_MOTION_DOT = .5483E-4
MEAN_MOTION_DDOT = 0

CCSDS_OMM_VERS = 2.0
CREATION_DATE  = 
ORIGINATOR     = 

OBJECT_NAME    = ENVISAT
OBJECT_ID      = 2002-009A
CENTER_NAME    = EARTH
REF_FRAME      = TEME
TIME_SYSTEM    = UTC
MEAN_ELEMENT_THEORY = SGP/SGP4

EPOCH          = 2025-11-07T03:38:53.359008
MEAN_MOTION    = 14.38978400
ECCENTRICITY   = .0001329
INCLINATION    = 98.3540
RA_OF_ASC_NODE = 262.8056
ARG_OF_PERICENTER = 83.7757
MEAN_ANOMALY   = 268.6027

EPHEMERIS_TYPE = 0
CLASSIFICATION_TYPE = U
NORAD_CAT_ID   = 27386
ELEMENT_SET_NO = 999
REV_AT_EPOCH   = 24154
BSTAR          = .72004E-4
MEAN_MOTION_DOT = .179E-5
MEAN_MOTION_DDOT = 0

CCSDS_OMM_VERS = 2.0
CREATION_DATE  = 
ORIGINATOR     = 

OBJECT_NAME    = IDEFIX & ARIANE 42P R/B
OBJECT_ID      = 2002-021B
CENTER_NAME    = EARTH
REF_FRAME      = TEME
TIME_SYSTEM    = UTC
MEAN_ELEMENT_THEORY = SGP/SGP4

EPOCH          = 2025-11-06T18:45:51.416640
MEAN_MOTION    = 14.30909310
ECCENTRICITY   = .0011527
INCLINATION    = 98.5730
RA_OF_ASC_NODE = 245.9502
ARG_OF_PERICENTER = 184.1552
MEAN_ANOMALY   = 175.9537

EPHEMERIS_TYPE = 0
CLASSIFICATION_TYPE = U
NORAD_CAT_ID   = 27422
ELEMENT_SET_NO = 999
REV_AT_EPOCH   = 22644
BSTAR          = .19528614E-3
MEAN_MOTION_DOT = .47E-5
MEAN_MOTION_DDOT = 0

CCSDS_OMM_VERS = 2.0
CREATION_DATE  = 
ORIGINATOR     = 

OBJECT_NAME    = AQUA
OBJECT_ID      = 2002-022A
CENTER_NAME    = EARTH
REF_FRAME      = TEME
TIME_SYSTEM    = UTC
MEAN_ELEMENT_THEORY = SGP/SGP4

EPOCH          = 2025-11-07T04:12:27.171936
MEAN_MOTION    = 14.61675109
ECCENTRICITY   = .0001049
INCLINATION    = 98.3983
RA_OF_ASC_NODE = 271.4897
ARG_OF_PERICENTER = 48.8074
MEAN_ANOMALY   = 77.3038

EPHEMERIS_TYPE = 0
CLASSIFICATION_TYPE = U
NORAD_CAT_ID   = 27424
ELEMENT_SET_NO = 999
REV_AT_EPOCH   = 25083
BSTAR          = .29987E-3
MEAN_MOTION_DOT = .1444E-4
MEAN_MOTION_DDOT = 0

CCSDS_OMM_VERS = 2.0
CREATION_DATE  = 
ORIGINATOR     = 

OBJECT_NAME    = CZ-4B R/B
OBJECT_ID      = 2002-024C
CENTER_NAME    = EARTH
REF_FRAME      = TEME
TIME_SYSTEM    = UTC
MEAN_ELEMENT_THEORY = SGP/SGP4

EPOCH          = 2025-11-07T03:16:02.195328
MEAN_MOTION    = 14.14516492
ECCENTRICITY   = .0050326
INCLINATION    = 98.9055
RA_OF_ASC_NODE = 0.0227
ARG_OF_PERICENTER = 12.2131
MEAN_ANOMALY   = 45.6724

EPHEMERIS_TYPE = 0
CLASSIFICATION_TYPE = U
NORAD_CAT_ID   = 27432
ELEMENT_SET_NO = 999
REV_AT_EPOCH   = 21191
BSTAR          = .64348E-4
MEAN_MOTION_DOT = .8E-6
MEAN_MOTION_DDOT = 0

CCSDS_OMM_VERS = 2.0
CREATION_DATE  = 
ORIGINATOR     = 

OBJECT_NAME    = MIDORI II (ADEOS-II)
OBJECT_ID      = 2002-056A
CENTER_NAME    = EARTH
REF_FRAME      = TEME
TIME_SYSTEM    = UTC
MEAN_ELEMENT_THEORY = SGP/SGP4

EPOCH          = 2025-11-06T19:12:44.212608
MEAN_MOTION    = 14.29167242
ECCENTRICITY   = .00015881
INCLINATION    = 98.7576
RA_OF_ASC_NODE = 263.5796
ARG_OF_PERICENTER = 42.2794
MEAN_ANOMALY   = 317.8510

EPHEMERIS_TYPE = 0
CLASSIFICATION_TYPE = U
NORAD_CAT_ID   = 27597
ELEMENT_SET_NO = 999
REV_AT_EPOCH   = 19274
BSTAR          = .19282077E-3
MEAN_MOTION_DOT = .444E-5
MEAN_MOTION_DDOT = 0

CCSDS_OMM_VERS = 2.0
CREATION_DATE  = 
ORIGINATOR     = 

OBJECT_NAME    = H-2A R/B
OBJECT_ID      = 2002-056E
CENTER_NAME    = EARTH
REF_FRAME      = TEME
TIME_SYSTEM    = UTC
MEAN_ELEMENT_THEORY = SGP/SGP4

EPOCH          = 2025-11-06T19:10:53.152320
MEAN_MOTION    = 14.33636523
ECCENTRICITY   = .00704799
INCLINATION    = 98.3010
RA_OF_ASC_NODE = 270.9983
ARG_OF_PERICENTER = 166.8646
MEAN_ANOMALY   = 211.2798

EPHEMERIS_TYPE = 0
CLASSIFICATION_TYPE = U
NORAD_CAT_ID   = 27601
ELEMENT_SET_NO = 999
REV_AT_EPOCH   = 19650
BSTAR          = .16244602E-3
MEAN_MOTION_DOT = .422E-5
MEAN_MOTION_DDOT = 0

CCSDS_OMM_VERS = 2.0
CREATION_DATE  = 
ORIGINATOR     = 

OBJECT_NAME    = CZ-4B R/B
OBJECT_ID      = 2003-049C
CENTER_NAME    = EARTH
REF_FRAME      = TEME
TIME_SYSTEM    = UTC
MEAN_ELEMENT_THEORY = SGP/SGP4

EPOCH          = 2025-11-06T23:17:32.265312
MEAN_MOTION    = 14.54857060
ECCENTRICITY   = .0047159
INCLINATION    = 98.6762
RA_OF_ASC_NODE = 296.1880
ARG_OF_PERICENTER = 245.7523
MEAN_ANOMALY   = 113.8741

EPHEMERIS_TYPE = 0
CLASSIFICATION_TYPE = U
NORAD_CAT_ID   = 28059
ELEMENT_SET_NO = 999
REV_AT_EPOCH   = 16875
BSTAR          = .13604E-3
MEAN_MOTION_DOT = .541E-5
MEAN_MOTION_DDOT = 0

CCSDS_OMM_VERS = 2.0
CREATION_DATE  = 
ORIGINATOR     = 

OBJECT_NAME    = CZ-2C R/B
OBJECT_ID      = 2004-012C
CENTER_NAME    = EARTH
REF_FRAME      = TEME
TIME_SYSTEM    = UTC
MEAN_ELEMENT_THEORY = SGP/SGP4

EPOCH          = 2025-11-07T03:04:50.740320
MEAN_MOTION    = 15.52301565
ECCENTRICITY   = .0019947
INCLINATION    = 97.7484
RA_OF_ASC_NODE = 0.8876
ARG_OF_PERICENTER = 44.0432
MEAN_ANOMALY   = 316.2405

EPHEMERIS_TYPE = 0
CLASSIFICATION_TYPE = U
NORAD_CAT_ID   = 28222
ELEMENT_SET_NO = 999
REV_AT_EPOCH   = 18519
BSTAR          = .57893E-3
MEAN_MOTION_DOT = .355E-3
MEAN_MOTION_DDOT = 0

CCSDS_OMM_VERS = 2.0
CREATION_DATE  = 
ORIGINATOR     = 

OBJECT_NAME    = SL-16 R/B
OBJECT_ID      = 2004-021B
CENTER_NAME    = EARTH
REF_FRAME      = TEME
TIME_SYSTEM    = UTC
MEAN_ELEMENT_THEORY = SGP/SGP4

EPOCH          = 2025-11-06T21:52:06.417696
MEAN_MOTION    = 14.14569582
ECCENTRICITY   = .0006832
INCLINATION    = 70.9970
RA_OF_ASC_NODE = 130.1511
ARG_OF_PERICENTER = 237.6847
MEAN_ANOMALY   = 122.3614

EPHEMERIS_TYPE = 0
CLASSIFICATION_TYPE = U
NORAD_CAT_ID   = 28353
ELEMENT_SET_NO = 999
REV_AT_EPOCH   = 10547
BSTAR          = .30143E-4
MEAN_MOTION_DOT = .1E-6
MEAN_MOTION_DDOT = 0

CCSDS_OMM_VERS = 2.0
CREATION_DATE  = 
ORIGINATOR     = 

OBJECT_NAME    = CZ-4B R/B
OBJECT_ID      = 2004-035C
CENTER_NAME    = EARTH
REF_FRAME      = TEME
TIME_SYSTEM    = UTC
MEAN_ELEMENT_THEORY = SGP/SGP4

EPOCH          = 2025-11-07T01:02:17.221632
MEAN_MOTION    = 15.26527079
ECCENTRICITY   = .0035241
INCLINATION    = 97.3652
RA_OF_ASC_NODE = 341.8760
ARG_OF_PERICENTER = 45.5289
MEAN_ANOMALY   = 314.8821

EPHEMERIS_TYPE = 0
CLASSIFICATION_TYPE = U
NORAD_CAT_ID   = 28415
ELEMENT_SET_NO = 999
REV_AT_EPOCH   = 16118
BSTAR          = .38851E-3
MEAN_MOTION_DOT = .10264E-3
MEAN_MOTION_DDOT = 0

CCSDS_OMM_VERS = 2.0
CREATION_DATE  = 
ORIGINATOR     = 

OBJECT_NAME    = CZ-2C R/B
OBJECT_ID      = 2004-046B
CENTER_NAME    = EARTH
REF_FRAME      = TEME
TIME_SYSTEM    = UTC
MEAN_ELEMENT_THEORY = SGP/SGP4

EPOCH          = 2025-11-06T18:38:03.347232
MEAN_MOTION    = 14.26916262
ECCENTRICITY   = .01399328
INCLINATION    = 98.1954
RA_OF_ASC_NODE = 228.3963
ARG_OF_PERICENTER = 157.8837
MEAN_ANOMALY   = 202.8463

EPHEMERIS_TYPE = 0
CLASSIFICATION_TYPE = U
NORAD_CAT_ID   = 28480
ELEMENT_SET_NO = 999
REV_AT_EPOCH   = 9097
BSTAR          = .11095042E-3
MEAN_MOTION_DOT = .259E-5
MEAN_MOTION_DDOT = 0

